NORAD_CAT_ID,OBJECT_NAME,OBJECT_TYPE,EPOCH,MEAN_MOTION,ECCENTRICITY,INCLINATION,RA_OF_ASC_NODE,ARG_OF_PERICENTER,MEAN_ANOMALY,BSTAR,MEAN_MOTION_DOT,MEAN_MOTION_DDOT,TLE_LINE0,TLE_LINE1,TLE_LINE2,SEMIMAJOR_AXIS,PERIOD,APOGEE,PERIGEE,DECAYED
50804.0,STARLINK-3323,PAYLOAD,2024-03-06 16:13:51,15.08843854,0.0001324,53.2182,209.7468,98.0924,262.0219,-4.8221e-05,-1.055e-05,0.0,0 STARLINK-3323,1 50804U 22001B   24066.67629373 -.00001055  00000-0 -48221-4 0  9997,2 50804  53.2182 209.7468 0001324  98.0924 262.0219 15.08843854121134,6917.869,95.437,540.65,538.818,0.0
50804.0,STARLINK-3323,PAYLOAD,2024-03-07 14:29:16,15.08843859,0.0001309,53.2171,205.584,102.9681,257.1457,0.00043581,6.656e-05,0.0,0 STARLINK-3323,1 50804U 22001B   24067.60365815  .00006656  00000-0  43581-3 0  9992,2 50804  53.2171 205.5840 0001309 102.9681 257.1457 15.08843859120029,6917.869,95.437,540.639,538.828,0.0
50804.0,STARLINK-3323,PAYLOAD,2024-03-08 19:06:12,15.08847407,0.0001144,53.2169,200.2312,103.0632,257.0487,0.00019842,2.872e-05,0.0,0 STARLINK-3323,1 50804U 22001B   24068.79597746  .00002872  00000-0  19842-3 0  9992,2 50804  53.2169 200.2312 0001144 103.0632 257.0487 15.08847407121450,6917.858,95.437,540.514,538.931,0.0
50804.0,STARLINK-3323,PAYLOAD,2024-03-09 07:49:17,15.08840093,0.0001375,53.2172,197.8524,99.5884,260.5263,4.8659e-05,4.87e-06,0.0,0 STARLINK-3323,1 50804U 22001B   24069.32590004  .00000487  00000-0  48659-4 0  9991,2 50804  53.2172 197.8524 0001375  99.5884 260.5263 15.08840093121538,6917.88,95.438,540.696,538.794,0.0
50804.0,STARLINK-3323,PAYLOAD,2024-03-09 12:35:27,15.08835703,0.0001327,53.2173,196.9603,100.0294,260.0848,-2.6097e-05,-7.03e-06,0.0,0 STARLINK-3323,1 50804U 22001B   24069.52462187 -.00000703  00000-0 -26097-4 0  9998,2 50804  53.2173 196.9603 0001327 100.0294 260.0848 15.08835703120318,6917.894,95.438,540.677,538.841,0.0
50804.0,STARLINK-3323,PAYLOAD,2024-03-10 12:26:14,15.08840468,0.0001507,53.2195,192.5003,99.1564,260.9599,0.00021162,3.082e-05,0.0,0 STARLINK-3323,1 50804U 22001B   24070.51822377  .00003082  00000-0  21162-3 0  9998,2 50804  53.2195 192.5003 0001507  99.1564 260.9599 15.08840468121717,6917.879,95.438,540.786,538.701,0.0
50804.0,STARLINK-3323,PAYLOAD,2024-03-10 17:12:23,15.08843222,0.0001177,53.2159,191.6079,91.4082,268.7045,0.000139,1.925e-05,0.0,0 STARLINK-3323,1 50804U 22001B   24070.71694232  .00001925  00000-0  13900-3 0  9992,2 50804  53.2159 191.6079 0001177  91.4082 268.7045 15.08843222120490,6917.871,95.437,540.55,538.921,0.0
50804.0,STARLINK-3323,PAYLOAD,2024-03-11 12:17:01,15.08838894,0.0001518,53.2152,188.0386,89.947,270.1696,0.00012959,1.775e-05,0.0,0 STARLINK-3323,1 50804U 22001B   24071.51182650  .00001775  00000-0  12959-3 0  9993,2 50804  53.2152 188.0386 0001518  89.9470 270.1696 15.08838894121866,6917.884,95.438,540.799,538.699,0.0
50804.0,STARLINK-3323,PAYLOAD,2024-03-12 13:43:11,15.08846063,0.0001121,53.215,183.2813,91.1188,268.9933,0.00021913,3.202e-05,0.0,0 STARLINK-3323,1 50804U 22001B   24072.57166411  .00003202  00000-0  21913-3 0  9994,2 50804  53.2150 183.2813 0001121  91.1188 268.9933 15.08846063122022,6917.862,95.437,540.502,538.951,0.0
50804.0,STARLINK-3323,PAYLOAD,2024-03-12 16:53:57,15.08847819,0.0001151,53.2147,182.6863,91.3949,268.7175,0.00026001,3.853e-05,0.0,0 STARLINK-3323,1 50804U 22001B   24072.70414347  .00003853  00000-0  26001-3 0  9998,2 50804  53.2147 182.6863 0001151  91.3949 268.7175 15.08847819120794,6917.856,95.437,540.518,538.925,0.0
50804.0,STARLINK-3323,PAYLOAD,2024-03-13 11:58:36,15.08838946,0.0001634,53.2156,179.1158,105.417,254.7002,0.0002197,3.21e-05,0.0,0 STARLINK-3323,1 50804U 22001B   24073.49902790  .00003210  00000-0  21970-3 0  9996,2 50804  53.2156 179.1158 0001634 105.4170 254.7002 15.08838946122169,6917.884,95.438,540.879,538.618,0.0
50804.0,STARLINK-3323,PAYLOAD,2024-03-14 07:03:13,15.08842728,0.0001775,53.2167,175.5462,111.6583,248.4598,0.00015856,2.236e-05,0.0,0 STARLINK-3323,1 50804U 22001B   24074.29390539  .00002236  00000-0  15856-3 0  9990,2 50804  53.2167 175.5462 0001775 111.6583 248.4598 15.08842728121030,6917.872,95.437,540.965,538.509,0.0
50804.0,STARLINK-3323,PAYLOAD,2024-03-14 11:49:22,15.08842241,0.0001658,53.217,174.6537,111.6172,248.4997,0.0001257,1.713e-05,0.0,0 STARLINK-3323,1 50804U 22001B   24074.49262509  .00001713  00000-0  12570-3 0  9996,2 50804  53.2170 174.6537 0001658 111.6172 248.4997 15.08842241121067,6917.874,95.437,540.886,538.592,0.0
50804.0,STARLINK-3323,PAYLOAD,2024-03-15 11:40:10,15.08836453,0.0001507,53.2165,170.1936,111.8229,248.2924,9.3735e-06,-1.39e-06,0.0,0 STARLINK-3323,1 50804U 22001B   24075.48622753 -.00000139  00000-0  93735-5 0  9993,2 50804  53.2165 170.1936 0001507 111.8229 248.2924 15.08836453122464,6917.891,95.438,540.799,538.714,0.0
50804.0,STARLINK-3323,PAYLOAD,2024-03-16 13:06:20,15.0883754,0.000131,53.217,165.4356,95.4498,264.6643,5.3824e-05,5.69e-06,0.0,0 STARLINK-3323,1 50804U 22001B   24076.54607101  .00000569  00000-0  53824-4 0  9991,2 50804  53.2170 165.4356 0001310  95.4498 264.6643 15.08837540122626,6917.888,95.438,540.659,538.847,0.0
50804.0,STARLINK-3323,PAYLOAD,2024-03-17 14:32:30,15.08838683,0.000139,53.2172,160.681,99.5284,260.5866,0.00013476,1.857e-05,0.0,0 STARLINK-3323,1 50804U 22001B   24077.60591109  .00001857  00000-0  13476-3 0  9998,2 50804  53.2172 160.6810 0001390  99.5284 260.5866 15.08838683121536,6917.884,95.438,540.711,538.788,0.0
50804.0,STARLINK-3323,PAYLOAD,2024-03-18 11:12:31,15.08841003,0.0001426,53.2172,156.8149,96.0687,264.0468,0.00011734,1.58e-05,0.0,0 STARLINK-3323,1 50804U 22001B   24078.46703089  .00001580  00000-0  11734-3 0  9993,2 50804  53.2172 156.8149 0001426  96.0687 264.0468 15.08841003121668,6917.877,95.437,540.729,538.756,0.0
50804.0,STARLINK-3323,PAYLOAD,2024-03-19 04:41:45,15.08845095,0.0001372,53.2166,153.5436,99.0596,261.0551,8.6222e-05,1.085e-05,0.0,0 STARLINK-3323,1 50804U 22001B   24079.19566941  .00001085  00000-0  86222-4 0  9993,2 50804  53.2166 153.5436 0001372  99.0596 261.0551 15.08845095123023,6917.865,95.437,540.679,538.781,0.0
50804.0,STARLINK-3323,PAYLOAD,2024-03-19 11:03:18,15.08848688,0.0001483,53.2173,152.3552,92.5217,267.5945,0.00011684,1.572e-05,0.0,0 STARLINK-3323,1 50804U 22001B   24079.46062602  .00001572  00000-0  11684-3 0  9998,2 50804  53.2173 152.3552 0001483  92.5217 267.5945 15.08848688121812,6917.854,95.437,540.745,538.693,0.0
50804.0,STARLINK-3323,PAYLOAD,2024-03-20 09:18:42,15.08841011,0.0001697,53.2176,148.192,123.252,236.8635,6.0698e-05,6.78e-06,0.0,0 STARLINK-3323,1 50804U 22001B   24080.38799000  .00000678  00000-0  60698-4 0  9996,2 50804  53.2176 148.1920 0001697 123.2520 236.8635 15.08841011123206,6917.877,95.437,540.916,538.568,0.0
50804.0,STARLINK-3323,PAYLOAD,2024-03-20 22:01:47,15.08835972,0.0001845,53.218,145.8086,120.3156,239.8019,4.0615e-05,3.58e-06,0.0,0 STARLINK-3323,1 50804U 22001B   24080.91791450  .00000358  00000-0  40615-4 0  9998,2 50804  53.2180 145.8086 0001845 120.3156 239.8019 15.08835972122034,6917.893,95.438,541.034,538.481,0.0
50804.0,STARLINK-3323,PAYLOAD,2024-03-21 10:44:52,15.08845494,0.0001703,53.218,143.4318,110.077,250.0406,2.5724e-05,1.21e-06,0.0,0 STARLINK-3323,1 50804U 22001B   24081.44782927  .00000121  00000-0  25724-4 0  9998,2 50804  53.2180 143.4318 0001703 110.0770 250.0406 15.08845494123369,6917.864,95.437,540.907,538.55,0.0
50804.0,STARLINK-3323,PAYLOAD,2024-03-22 10:35:39,15.08841361,0.000159,53.2178,138.9735,94.6994,265.4179,0.00026466,3.927e-05,0.0,0 STARLINK-3323,1 50804U 22001B   24082.44143119  .00003927  00000-0  26466-3 0  9993,2 50804  53.2178 138.9735 0001590  94.6994 265.4179 15.08841361122261,6917.876,95.437,540.841,538.641,0.0
50804.0,STARLINK-3323,PAYLOAD,2024-03-23 08:51:04,15.08815683,0.0001482,53.2173,134.808,100.9094,259.2065,0.00022909,3.358e-05,0.0,0 STARLINK-3323,1 50804U 22001B   24083.36880691  .00003358  00000-0  22909-3 0  9994,2 50804  53.2173 134.8080 0001482 100.9094 259.2065 15.08815683123653,6917.955,95.439,540.845,538.794,0.0
50804.0,STARLINK-3323,PAYLOAD,2024-03-23 19:58:46,15.08836738,0.0001287,53.2167,132.7271,79.693,280.4207,-3.3038e-05,-8.14e-06,0.0,0 STARLINK-3323,1 50804U 22001B   24083.83247900 -.00000814  00000-0 -33038-4 0  9998,2 50804  53.2167 132.7271 0001287  79.6930 280.4207 15.08836738123725,6917.89,95.438,540.646,538.865,0.0
50804.0,STARLINK-3323,PAYLOAD,2024-03-24 10:17:15,15.08824738,0.000151,53.218,130.0542,102.6511,257.465,-6.1727e-05,-1.27e-05,0.0,0 STARLINK-3323,1 50804U 22001B   24084.42865327 -.00001270  00000-0 -61727-4 0  9996,2 50804  53.2180 130.0542 0001510 102.6511 257.4650 15.08824738123816,6917.927,95.439,540.837,538.747,0.0
50804.0,STARLINK-3323,PAYLOAD,2024-03-24 19:49:33,15.08843181,0.0001251,53.2166,128.2653,96.7919,263.3215,0.00019027,2.742e-05,0.0,0 STARLINK-3323,1 50804U 22001B   24084.82607940  .00002742  00000-0  19027-3 0  9993,2 50804  53.2166 128.2653 0001251  96.7919 263.3215 15.08843181123871,6917.871,95.437,540.601,538.87,0.0
50804.0,STARLINK-3323,PAYLOAD,2024-03-25 19:40:20,15.08851725,0.0001479,53.2163,123.8074,89.2618,270.8544,0.00033533,5.055e-05,0.0,0 STARLINK-3323,1 50804U 22001B   24085.81967812  .00005055  00000-0  33533-3 0  9998,2 50804  53.2163 123.8074 0001479  89.2618 270.8544 15.08851725122770,6917.845,95.437,540.733,538.686,0.0
50804.0,STARLINK-3323,PAYLOAD,2024-03-26 11:34:13,15.08823551,0.0001392,53.2166,120.8339,97.8603,262.2547,3.4122e-05,2.55e-06,0.0,0 STARLINK-3323,1 50804U 22001B   24086.48210372  .00000255  00000-0  34122-4 0  9997,2 50804  53.2166 120.8339 0001392  97.8603 262.2547 15.08823551124122,6917.931,95.439,540.759,538.833,0.0
50804.0,STARLINK-3323,PAYLOAD,2024-03-26 19:31:08,15.08834478,0.0001349,53.2165,119.3481,98.8063,261.3082,2.9816e-05,1.87e-06,0.0,0 STARLINK-3323,1 50804U 22001B   24086.81329837  .00000187  00000-0  29816-4 0  9999,2 50804  53.2165 119.3481 0001349  98.8063 261.3082 15.08834478124174,6917.897,95.438,540.695,538.829,0.0
